CCSDS_OMM_VERS = 2.0
CREATION_DATE  = 
ORIGINATOR     = 

OBJECT_NAME    = STARLINK-36488
OBJECT_ID      = 2026-002B
CENTER_NAME    = EARTH
REF_FRAME      = TEME
TIME_SYSTEM    = UTC
MEAN_ELEMENT_THEORY = SGP/SGP4

EPOCH          = 2026-01-13T06:00:02.000160
MEAN_MOTION    = 15.93329737
ECCENTRICITY   = .00020022
INCLINATION    = 42.9982
RA_OF_ASC_NODE = 286.7188
ARG_OF_PERICENTER = 277.7003
MEAN_ANOMALY   = 127.2842

EPHEMERIS_TYPE = 0
CLASSIFICATION_TYPE = U
NORAD_CAT_ID   = 67306
ELEMENT_SET_NO = 999
REV_AT_EPOCH   = 250
BSTAR          = -.34936828E-2
MEAN_MOTION_DOT = -.1286859E-1
MEAN_MOTION_DDOT = .48540771E-3

CCSDS_OMM_VERS = 2.0
CREATION_DATE  = 
ORIGINATOR     = 

OBJECT_NAME    = STARLINK-36481
OBJECT_ID      = 2026-002C
CENTER_NAME    = EARTH
REF_FRAME      = TEME
TIME_SYSTEM    = UTC
MEAN_ELEMENT_THEORY = SGP/SGP4

EPOCH          = 2026-01-13T06:00:02.000160
MEAN_MOTION    = 15.93430133
ECCENTRICITY   = .00019735
INCLINATION    = 42.9983
RA_OF_ASC_NODE = 286.7078
ARG_OF_PERICENTER = 278.2787
MEAN_ANOMALY   = 131.1570

EPHEMERIS_TYPE = 0
CLASSIFICATION_TYPE = U
NORAD_CAT_ID   = 67307
ELEMENT_SET_NO = 999
REV_AT_EPOCH   = 250
BSTAR          = -.35044052E-2
MEAN_MOTION_DOT = -.1297557E-1
MEAN_MOTION_DDOT = .49330454E-3

CCSDS_OMM_VERS = 2.0
CREATION_DATE  = 
ORIGINATOR     = 

OBJECT_NAME    = STARLINK-36449
OBJECT_ID      = 2026-002D
CENTER_NAME    = EARTH
REF_FRAME      = TEME
TIME_SYSTEM    = UTC
MEAN_ELEMENT_THEORY = SGP/SGP4

EPOCH          = 2026-01-13T06:00:02.000160
MEAN_MOTION    = 15.93481702
ECCENTRICITY   = .00019516
INCLINATION    = 42.9981
RA_OF_ASC_NODE = 286.7025
ARG_OF_PERICENTER = 277.3267
MEAN_ANOMALY   = 134.1910

EPHEMERIS_TYPE = 0
CLASSIFICATION_TYPE = U
NORAD_CAT_ID   = 67308
ELEMENT_SET_NO = 999
REV_AT_EPOCH   = 256
BSTAR          = -.3517174E-2
MEAN_MOTION_DOT = -.1305749E-1
MEAN_MOTION_DDOT = .49927322E-3

CCSDS_OMM_VERS = 2.0
CREATION_DATE  = 
ORIGINATOR     = 

OBJECT_NAME    = STARLINK-36482
OBJECT_ID      = 2026-002E
CENTER_NAME    = EARTH
REF_FRAME      = TEME
TIME_SYSTEM    = UTC
MEAN_ELEMENT_THEORY = SGP/SGP4

EPOCH          = 2026-01-13T06:00:02.000160
MEAN_MOTION    = 15.93741331
ECCENTRICITY   = .00019362
INCLINATION    = 42.9986
RA_OF_ASC_NODE = 286.6754
ARG_OF_PERICENTER = 276.6944
MEAN_ANOMALY   = 145.7480

EPHEMERIS_TYPE = 0
CLASSIFICATION_TYPE = U
NORAD_CAT_ID   = 67309
ELEMENT_SET_NO = 999
REV_AT_EPOCH   = 250
BSTAR          = -.35504123E-2
MEAN_MOTION_DOT = -.1336019E-1
MEAN_MOTION_DDOT = .52200054E-3

CCSDS_OMM_VERS = 2.0
CREATION_DATE  = 
ORIGINATOR     = 

OBJECT_NAME    = STARLINK-36491
OBJECT_ID      = 2026-002F
CENTER_NAME    = EARTH
REF_FRAME      = TEME
TIME_SYSTEM    = UTC
MEAN_ELEMENT_THEORY = SGP/SGP4

EPOCH          = 2026-01-13T06:00:02.000160
MEAN_MOTION    = 15.93388259
ECCENTRICITY   = .0001945
INCLINATION    = 42.9984
RA_OF_ASC_NODE = 286.7121
ARG_OF_PERICENTER = 275.5175
MEAN_ANOMALY   = 132.2308

EPHEMERIS_TYPE = 0
CLASSIFICATION_TYPE = U
NORAD_CAT_ID   = 67310
ELEMENT_SET_NO = 999
REV_AT_EPOCH   = 250
BSTAR          = -.35172054E-2
MEAN_MOTION_DOT = -.1299386E-1
MEAN_MOTION_DDOT = .49437515E-3

CCSDS_OMM_VERS = 2.0
CREATION_DATE  = 
ORIGINATOR     = 

OBJECT_NAME    = STARLINK-36495
OBJECT_ID      = 2026-002G
CENTER_NAME    = EARTH
REF_FRAME      = TEME
TIME_SYSTEM    = UTC
MEAN_ELEMENT_THEORY = SGP/SGP4

EPOCH          = 2026-01-13T06:00:02.000160
MEAN_MOTION    = 15.93535158
ECCENTRICITY   = .00019746
INCLINATION    = 42.9983
RA_OF_ASC_NODE = 286.6964
ARG_OF_PERICENTER = 276.1055
MEAN_ANOMALY   = 137.8131

EPHEMERIS_TYPE = 0
CLASSIFICATION_TYPE = U
NORAD_CAT_ID   = 67311
ELEMENT_SET_NO = 999
REV_AT_EPOCH   = 266
BSTAR          = -.35156287E-2
MEAN_MOTION_DOT = -.1308849E-1
MEAN_MOTION_DDOT = .50170868E-3

CCSDS_OMM_VERS = 2.0
CREATION_DATE  = 
ORIGINATOR     = 

OBJECT_NAME    = STARLINK-36485
OBJECT_ID      = 2026-002H
CENTER_NAME    = EARTH
REF_FRAME      = TEME
TIME_SYSTEM    = UTC
MEAN_ELEMENT_THEORY = SGP/SGP4

EPOCH          = 2026-01-13T06:00:02.000160
MEAN_MOTION    = 15.93590787
ECCENTRICITY   = .00019753
INCLINATION    = 42.9984
RA_OF_ASC_NODE = 286.6897
ARG_OF_PERICENTER = 275.9560
MEAN_ANOMALY   = 140.5570

EPHEMERIS_TYPE = 0
CLASSIFICATION_TYPE = U
NORAD_CAT_ID   = 67312
ELEMENT_SET_NO = 999
REV_AT_EPOCH   = 250
BSTAR          = -.35211948E-2
MEAN_MOTION_DOT = -.1314727E-1
MEAN_MOTION_DDOT = .50611843E-3

CCSDS_OMM_VERS = 2.0
CREATION_DATE  = 
ORIGINATOR     = 

OBJECT_NAME    = STARLINK-36445
OBJECT_ID      = 2026-002J
CENTER_NAME    = EARTH
REF_FRAME      = TEME
TIME_SYSTEM    = UTC
MEAN_ELEMENT_THEORY = SGP/SGP4

EPOCH          = 2026-01-13T06:00:02.000160
MEAN_MOTION    = 15.93636519
ECCENTRICITY   = .000194
INCLINATION    = 42.9981
RA_OF_ASC_NODE = 286.6860
ARG_OF_PERICENTER = 274.9784
MEAN_ANOMALY   = 142.9759

EPHEMERIS_TYPE = 0
CLASSIFICATION_TYPE = U
NORAD_CAT_ID   = 67313
ELEMENT_SET_NO = 999
REV_AT_EPOCH   = 266
BSTAR          = -.35386708E-2
MEAN_MOTION_DOT = -.1324344E-1
MEAN_MOTION_DDOT = .51314803E-3

CCSDS_OMM_VERS = 2.0
CREATION_DATE  = 
ORIGINATOR     = 

OBJECT_NAME    = STARLINK-36476
OBJECT_ID      = 2026-002K
CENTER_NAME    = EARTH
REF_FRAME      = TEME
TIME_SYSTEM    = UTC
MEAN_ELEMENT_THEORY = SGP/SGP4

EPOCH          = 2026-01-13T06:00:02.000160
MEAN_MOTION    = 15.93694083
ECCENTRICITY   = .00019631
INCLINATION    = 42.9985
RA_OF_ASC_NODE = 286.6798
ARG_OF_PERICENTER = 278.1654
MEAN_ANOMALY   = 142.3482

EPHEMERIS_TYPE = 0
CLASSIFICATION_TYPE = U
NORAD_CAT_ID   = 67314
ELEMENT_SET_NO = 999
REV_AT_EPOCH   = 250
BSTAR          = -.3552488E-2
MEAN_MOTION_DOT = -.1333485E-1
MEAN_MOTION_DDOT = .51994657E-3

CCSDS_OMM_VERS = 2.0
CREATION_DATE  = 
ORIGINATOR     = 

OBJECT_NAME    = STARLINK-36463
OBJECT_ID      = 2026-002L
CENTER_NAME    = EARTH
REF_FRAME      = TEME
TIME_SYSTEM    = UTC
MEAN_ELEMENT_THEORY = SGP/SGP4

EPOCH          = 2026-01-13T06:00:02.000160
MEAN_MOTION    = 15.93792659
ECCENTRICITY   = .00019251
INCLINATION    = 42.9983
RA_OF_ASC_NODE = 286.6691
ARG_OF_PERICENTER = 275.0772
MEAN_ANOMALY   = 149.4782

EPHEMERIS_TYPE = 0
CLASSIFICATION_TYPE = U
NORAD_CAT_ID   = 67315
ELEMENT_SET_NO = 999
REV_AT_EPOCH   = 256
BSTAR          = -.35498722E-2
MEAN_MOTION_DOT = -.1339424E-1
MEAN_MOTION_DDOT = .52470467E-3

CCSDS_OMM_VERS = 2.0
CREATION_DATE  = 
ORIGINATOR     = 

OBJECT_NAME    = STARLINK-36461
OBJECT_ID      = 2026-002M
CENTER_NAME    = EARTH
REF_FRAME      = TEME
TIME_SYSTEM    = UTC
MEAN_ELEMENT_THEORY = SGP/SGP4

EPOCH          = 2026-01-13T06:00:02.000160
MEAN_MOTION    = 15.93850589
ECCENTRICITY   = .00019211
INCLINATION    = 42.9982
RA_OF_ASC_NODE = 286.6622
ARG_OF_PERICENTER = 278.8650
MEAN_ANOMALY   = 148.4598

EPHEMERIS_TYPE = 0
CLASSIFICATION_TYPE = U
NORAD_CAT_ID   = 67316
ELEMENT_SET_NO = 999
REV_AT_EPOCH   = 266
BSTAR          = -.35448363E-2
MEAN_MOTION_DOT = -.1341624E-1
MEAN_MOTION_DDOT = .5265847E-3

CCSDS_OMM_VERS = 2.0
CREATION_DATE  = 
ORIGINATOR     = 

OBJECT_NAME    = STARLINK-36450
OBJECT_ID      = 2026-002N
CENTER_NAME    = EARTH
REF_FRAME      = TEME
TIME_SYSTEM    = UTC
MEAN_ELEMENT_THEORY = SGP/SGP4

EPOCH          = 2026-01-13T06:00:02.000160
MEAN_MOTION    = 15.93907308
ECCENTRICITY   = .00018774
INCLINATION    = 42.9983
RA_OF_ASC_NODE = 286.6570
ARG_OF_PERICENTER = 275.6623
MEAN_ANOMALY   = 153.7226

EPHEMERIS_TYPE = 0
CLASSIFICATION_TYPE = U
NORAD_CAT_ID   = 67317
ELEMENT_SET_NO = 999
REV_AT_EPOCH   = 266
BSTAR          = -.35841016E-2
MEAN_MOTION_DOT = -.1360357E-1
MEAN_MOTION_DDOT = .54043351E-3

