STARLINK-36488          
1 67306U 26002B   26013.25002315 -.01286859  48541-3 -34937-2 0  9996
2 67306  42.9982 286.7188 0002002 277.7003 127.2842 15.93329737  2500
STARLINK-36481          
1 67307U 26002C   26013.25002315 -.01297557  49330-3 -35044-2 0  9991
2 67307  42.9983 286.7078 0001973 278.2787 131.1570 15.93430133  2506
STARLINK-36449          
1 67308U 26002D   26013.25002315 -.01305749  49927-3 -35172-2 0  9999
2 67308  42.9981 286.7025 0001951 277.3267 134.1910 15.93481702  2561
STARLINK-36482          
1 67309U 26002E   26013.25002315 -.01336019  52200-3 -35504-2 0  9991
2 67309  42.9986 286.6754 0001936 276.6944 145.7480 15.93741331  2503
STARLINK-36491          
1 67310U 26002F   26013.25002315 -.01299386  49438-3 -35172-2 0  9998
2 67310  42.9984 286.7121 0001945 275.5175 132.2308 15.93388259  2502
STARLINK-36495          
1 67311U 26002G   26013.25002315 -.01308849  50171-3 -35156-2 0  9992
2 67311  42.9983 286.6964 0001974 276.1055 137.8131 15.93535158  2666
STARLINK-36485          
1 67312U 26002H   26013.25002315 -.01314727  50612-3 -35212-2 0  9998
2 67312  42.9984 286.6897 0001975 275.9560 140.5570 15.93590787  2502
STARLINK-36445          
1 67313U 26002J   26013.25002315 -.01324344  51315-3 -35387-2 0  9999
2 67313  42.9981 286.6860 0001940 274.9784 142.9759 15.93636519  2665
STARLINK-36476          
1 67314U 26002K   26013.25002315 -.01333485  51995-3 -35525-2 0  9994
2 67314  42.9985 286.6798 0001963 278.1654 142.3482 15.93694083  2507
STARLINK-36463          
1 67315U 26002L   26013.25002315 -.01339424  52470-3 -35499-2 0  9993
2 67315  42.9983 286.6691 0001925 275.0772 149.4782 15.93792659  2568
STARLINK-36461          
1 67316U 26002M   26013.25002315 -.01341624  52658-3 -35448-2 0  9991
2 67316  42.9982 286.6622 0001921 278.8650 148.4598 15.93850589  2666
STARLINK-36450          
1 67317U 26002N   26013.25002315 -.01360357  54043-3 -35841-2 0  9993
2 67317  42.9983 286.6570 0001877 275.6623 153.7226 15.93907308  2664
